{
  "norad_id": 57876,
  "name": "STARLINK-30429",
  "history": [
    {
      "epoch": "2026-04-14T15:35:12.444576Z",
      "apogee_km": 483.17564480658075,
      "perigee_km": 482.98353074212355,
      "latitude_deg": -4.512159107714464e-05,
      "longitude_deg": 5.782160082570445,
      "height_km": 482.86268344949474,
      "semi_major_axis_km": 6861.216587774352,
      "eccentricity": 1.4e-05,
      "inclination_deg": 43.004,
      "raan_deg": 82.4069,
      "arg_perigee_deg": 265.7641,
      "mean_anomaly_deg": 94.3194,
      "mean_motion_rev_day": 15.27569817
    },
    {
      "epoch": "2026-04-15T15:07:32.583936Z",
      "apogee_km": 483.7619271847452,
      "perigee_km": 482.3773356865213,
      "latitude_deg": -4.3100993429381356e-06,
      "longitude_deg": 6.193281984528176,
      "height_km": 482.8475344843782,
      "semi_major_axis_km": 6861.2066314356325,
      "eccentricity": 0.0001009,
      "inclination_deg": 43.0058,
      "raan_deg": 76.8686,
      "arg_perigee_deg": 269.9265,
      "mean_anomaly_deg": 90.1471,
      "mean_motion_rev_day": 15.27573142
    },
    {
      "epoch": "2026-04-16T14:39:53.690976Z",
      "apogee_km": 483.6959760953032,
      "perigee_km": 482.4417476637509,
      "latitude_deg": 1.9725639037241836e-05,
      "longitude_deg": 6.602443063668,
      "height_km": 482.7679342428128,
      "semi_major_axis_km": 6861.205861879526,
      "eccentricity": 9.14e-05,
      "inclination_deg": 43.0041,
      "raan_deg": 71.3324,
      "arg_perigee_deg": 277.1146,
      "mean_anomaly_deg": 82.9602,
      "mean_motion_rev_day": 15.27573399
    },
    {
      "epoch": "2026-04-17T22:03:00.971136Z",
      "apogee_km": 483.62681284510563,
      "perigee_km": 482.4568446312287,
      "latitude_deg": -6.685852165074595e-06,
      "longitude_deg": -112.85276805346741,
      "height_km": 482.78745905592916,
      "semi_major_axis_km": 6861.178828738167,
      "eccentricity": 8.526e-05,
      "inclination_deg": 43.0044,
      "raan_deg": 63.9465,
      "arg_perigee_deg": 273.0467,
      "mean_anomaly_deg": 87.0287,
      "mean_motion_rev_day": 15.27582427
    },
    {
      "epoch": "2026-04-18T13:44:34.603008Z",
      "apogee_km": 483.7033504993469,
      "perigee_km": 482.38325940867435,
      "latitude_deg": 1.0113163267350519e-05,
      "longitude_deg": 7.4193418646046165,
      "height_km": 482.7629831029568,
      "semi_major_axis_km": 6861.18030495401,
      "eccentricity": 9.62e-05,
      "inclination_deg": 43.0056,
      "raan_deg": 60.2532,
      "arg_perigee_deg": 274.9781,
      "mean_anomaly_deg": 85.0961,
      "mean_motion_rev_day": 15.27581934
    },
    {
      "epoch": "2026-04-19T21:07:42.695328Z",
      "apogee_km": 483.33512174648877,
      "perigee_km": 482.76975973657136,
      "latitude_deg": -1.2327103338353502e-05,
      "longitude_deg": -112.04066119249129,
      "height_km": 482.6826106540545,
      "semi_major_axis_km": 6861.189440741529,
      "eccentricity": 4.12e-05,
      "inclination_deg": 43.003,
      "raan_deg": 52.8659,
      "arg_perigee_deg": 301.0839,
      "mean_anomaly_deg": 58.9972,
      "mean_motion_rev_day": 15.27578883
    },
    {
      "epoch": "2026-04-20T12:49:16.929408Z",
      "apogee_km": 483.8048183810197,
      "perigee_km": 482.32965946965123,
      "latitude_deg": -3.341657583439946e-05,
      "longitude_deg": 8.231590835926916,
      "height_km": 482.83398060377374,
      "semi_major_axis_km": 6861.204238925336,
      "eccentricity": 0.0001075,
      "inclination_deg": 43.0044,
      "raan_deg": 49.1753,
      "arg_perigee_deg": 270.7908,
      "mean_anomaly_deg": 89.282,
      "mean_motion_rev_day": 15.27573941
    },
    {
      "epoch": "2026-04-21T20:12:24.314976Z",
      "apogee_km": 483.87962985039667,
      "perigee_km": 482.26587331682276,
      "latitude_deg": 2.7089947981605034e-05,
      "longitude_deg": -111.22377303748937,
      "height_km": 482.72068223900396,
      "semi_major_axis_km": 6861.209751583609,
      "eccentricity": 0.0001176,
      "inclination_deg": 43.004,
      "raan_deg": 41.7896,
      "arg_perigee_deg": 279.2019,
      "mean_anomaly_deg": 80.87,
      "mean_motion_rev_day": 15.275721
    },
    {
      "epoch": "2026-04-22T11:53:56.519520Z",
      "apogee_km": 484.3254953595306,
      "perigee_km": 481.5639099742075,
      "latitude_deg": -9.39038652998784e-06,
      "longitude_deg": 9.053941844413332,
      "height_km": 482.5858812600536,
      "semi_major_axis_km": 6861.081702666869,
      "eccentricity": 0.00020125,
      "inclination_deg": 43.0027,
      "raan_deg": 38.096,
      "arg_perigee_deg": 275.6656,
      "mean_anomaly_deg": 84.3966,
      "mean_motion_rev_day": 15.27614864
    },
    {
      "epoch": "2026-04-23T02:01:23.364480Z",
      "apogee_km": 483.8290636706233,
      "perigee_km": 482.3200088053427,
      "latitude_deg": 6.459055143346642e-05,
      "longitude_deg": 153.28970820810434,
      "height_km": 482.6320888444326,
      "semi_major_axis_km": 6861.211536237983,
      "eccentricity": 0.00010997,
      "inclination_deg": 43.005,
      "raan_deg": 34.7736,
      "arg_perigee_deg": 286.9073,
      "mean_anomaly_deg": 73.1659,
      "mean_motion_rev_day": 15.27571504
    },
    {
      "epoch": "2026-04-24T10:58:39.224352Z",
      "apogee_km": 483.7843211136951,
      "perigee_km": 482.2913294717109,
      "latitude_deg": -2.884958999602035e-05,
      "longitude_deg": 9.863534390748395,
      "height_km": 482.5951485731217,
      "semi_major_axis_km": 6861.174825292703,
      "eccentricity": 0.0001088,
      "inclination_deg": 43.0024,
      "raan_deg": 27.017,
      "arg_perigee_deg": 287.0898,
      "mean_anomaly_deg": 72.9834,
      "mean_motion_rev_day": 15.27583764
    },
    {
      "epoch": "2026-04-25T10:31:00.633792Z",
      "apogee_km": 483.3469875404908,
      "perigee_km": 482.7541809332133,
      "latitude_deg": -2.3369460657249873e-05,
      "longitude_deg": 10.27070982642164,
      "height_km": 482.91354092996573,
      "semi_major_axis_km": 6861.187584236852,
      "eccentricity": 4.32e-05,
      "inclination_deg": 43.0042,
      "raan_deg": 21.4801,
      "arg_perigee_deg": 252.9959,
      "mean_anomaly_deg": 107.0845,
      "mean_motion_rev_day": 15.27579503
    },
    {
      "epoch": "2026-04-26T10:03:21.274272Z",
      "apogee_km": 483.87498899989623,
      "perigee_km": 482.2432593376461,
      "latitude_deg": 8.677829939340405e-06,
      "longitude_deg": 10.67812707501549,
      "height_km": 482.7168016921101,
      "semi_major_axis_km": 6861.19612416877,
      "eccentricity": 0.00011891,
      "inclination_deg": 43.0059,
      "raan_deg": 15.9402,
      "arg_perigee_deg": 278.4231,
      "mean_anomaly_deg": 81.6486,
      "mean_motion_rev_day": 15.27576651
    },
    {
      "epoch": "2026-04-27T09:35:42.323424Z",
      "apogee_km": 483.51683246772427,
      "perigee_km": 482.58782743244865,
      "latitude_deg": -2.3324622665255777e-05,
      "longitude_deg": 11.082669019907133,
      "height_km": 482.4282366301944,
      "semi_major_axis_km": 6861.189329950086,
      "eccentricity": 6.77e-05,
      "inclination_deg": 43.0062,
      "raan_deg": 10.3992,
      "arg_perigee_deg": 329.5887,
      "mean_anomaly_deg": 30.4925,
      "mean_motion_rev_day": 15.2757892
    },
    {
      "epoch": "2026-04-28T16:58:50.754432Z",
      "apogee_km": 483.96556218464866,
      "perigee_km": 482.1953680786446,
      "latitude_deg": -1.7048108520555762e-05,
      "longitude_deg": -108.37391637682468,
      "height_km": 482.79079561691674,
      "semi_major_axis_km": 6861.217465131646,
      "eccentricity": 0.000129,
      "inclination_deg": 43.0045,
      "raan_deg": 3.0167,
      "arg_perigee_deg": 274.3277,
      "mean_anomaly_deg": 85.7427,
      "mean_motion_rev_day": 15.27569524
    }
  ]
}